index,OBJECT_NAME,OBJECT_ID,EPOCH,MEAN_MOTION,ECCENTRICITY,INCLINATION,RA_OF_ASC_NODE,ARG_OF_PERICENTER,MEAN_ANOMALY,EPHEMERIS_TYPE,CLASSIFICATION_TYPE,NORAD_CAT_ID,ELEMENT_SET_NO,REV_AT_EPOCH,BSTAR,MEAN_MOTION_DOT,MEAN_MOTION_DDOT,GROUP,downloaded
151,MAYA-2,1998-067SF,2022-05-12T04:31:03.878976,15.77859573,0.0006269,51.6332,130.714,51.7447,308.4117,0,U,47929,999,6600,0.00081518,0.00142389,0.0,cubesat,2022-05-13 13:10:43.006511
152,GUARANISAT-1,1998-067SH,2022-05-13T04:27:44.510112,15.78485537,0.0005883,51.6305,125.3928,54.8126,305.3425,0,U,47931,999,6620,0.00093723,0.00168988,0.0,cubesat,2022-05-13 13:10:43.006511
153,BEESAT-6,2021-022AB,2022-05-13T04:35:49.460352,15.08073196,0.0018667,97.5345,33.4915,268.4969,245.0251,0,U,47957,999,6248,0.00038897,5.957e-05,0.0,cubesat,2022-05-13 13:10:43.006511
154,SMOG-1,2021-022AJ,2022-05-12T17:13:04.931616,15.09487182,0.0016626,97.5347,33.9647,257.7073,102.2294,0,U,47964,999,6149,0.00041344,6.582e-05,0.0,cubesat,2022-05-13 13:10:43.006511
155,MMSATS-1,1998-067SJ,2022-05-12T17:34:00.384960,15.5726701,3.16e-05,51.6474,144.1127,273.6834,86.407,0,U,47976,999,6469,0.00025855,0.00018766,0.0,cubesat,2022-05-13 13:10:43.006511
156,BCCSAT-1,2021-022AK,2022-05-12T16:24:16.516800,15.08699315,0.0013477,97.5343,33.5953,255.3614,104.612,0,U,48041,999,6144,0.00041062,6.39e-05,0.0,cubesat,2022-05-13 13:10:43.006511
157,BEESAT-5,2021-022AM,2022-05-12T23:17:58.079904,15.08182416,0.0018488,97.5302,33.2703,270.0951,145.9973,0,U,48083,999,6158,0.00040238,6.183e-05,0.0,cubesat,2022-05-13 13:10:43.006511
158,BEESAT-7,2021-022AN,2022-05-12T23:19:03.153792,15.0812495,0.0018712,97.5329,33.2807,269.4247,146.3242,0,U,48084,999,6117,0.00038296,5.873e-05,0.0,cubesat,2022-05-13 13:10:43.006511
159,BEESAT-8,2021-022AP,2022-05-12T23:17:15.229824,15.08066922,0.0018422,97.5305,33.2807,269.7663,146.5479,0,U,48085,999,6173,0.00035668,5.456e-05,0.0,cubesat,2022-05-13 13:10:43.006511
160,RAMSAT,1998-067SL,2022-05-13T00:54:17.044128,15.65304232,0.0004504,51.6358,137.9108,1.4738,358.627,0,U,48850,999,5177,0.00063978,0.00064867,0.0,cubesat,2022-05-13 13:10:43.006511
161,BD-28,1998-067SN,2022-05-12T14:00:58.836384,15.67613325,0.0005953,51.6327,138.597,19.7767,340.3459,0,U,48867,999,5047,0.00065708,0.00073279,0.0,cubesat,2022-05-13 13:10:43.006511
162,BINAR-1,1998-067SR,2022-05-13T01:01:01.094592,15.64561509,0.0002684,51.6346,141.6684,72.7164,287.4124,0,U,49272,999,3411,0.00068074,0.00067033,0.0,cubesat,2022-05-13 13:10:43.006511
163,MAYA-3,1998-067SS,2022-05-13T03:59:22.676352,15.69883775,0.0004424,51.6337,138.7395,60.5779,299.566,0,U,49273,999,3416,0.00093361,0.00115152,0.0,cubesat,2022-05-13 13:10:43.006511
164,MAYA-4,1998-067ST,2022-05-13T04:19:41.822688,15.69588683,0.0004468,51.6336,138.8308,60.5432,299.6011,0,U,49274,999,3416,0.00092739,0.00112956,0.0,cubesat,2022-05-13 13:10:43.006511
165,CUAVA-1,1998-067SU,2022-05-13T06:11:14.053920,15.67297718,0.0002737,51.6367,139.1626,60.5499,26.8282,0,U,49275,999,3411,0.00061908,0.00068034,0.0,cubesat,2022-05-13 13:10:43.006511
0,MTI,2000-014A,2022-05-13T07:21:48.391776,16.33864561,0.0008599,97.4202,67.2161,194.2132,166.0313,0,U,26102,999,23313,0.00085758,0.05463232,2.5616e-06,military,2022-05-13 13:10:43.811889
1,HELIOS 2A,2004-049A,2022-05-13T03:22:04.980288,14.93048269,0.0013946,98.2312,74.5301,191.8096,168.2793,0,U,28492,999,92985,0.00014159,1.413e-05,0.0,military,2022-05-13 13:10:43.811889
2,CFESAT,2007-006F,2022-05-12T19:49:15.040992,15.53166189,0.0003323,35.4196,171.4883,127.1694,232.9341,0,U,30777,999,84362,0.00077289,0.00050303,0.0,military,2022-05-13 13:10:43.811889
3,SPIRALE A,2009-008C,2022-05-12T18:17:39.872256,4.58842182,0.542706,2.0343,290.0901,177.4445,187.1335,0,U,33751,999,19317,0.00042081,1.06e-06,0.0,military,2022-05-13 13:10:43.811889
4,SPIRALE B,2009-008D,2022-05-12T12:50:31.839936,2.81062864,0.6880019,1.7878,134.9043,112.1073,331.221,0,U,33752,999,12406,0.0013335,8.037e-05,0.0,military,2022-05-13 13:10:43.811889
5,SAPPHIRE,2013-009C,2022-05-12T11:45:21.107232,14.34291502,0.0011966,98.4292,329.1541,29.2289,330.9563,0,U,39088,999,48196,4.9734e-05,9.7e-07,0.0,military,2022-05-13 13:10:43.811889
0,GPS BIIR-2  (PRN 13),1997-035A,2022-05-12T11:09:01.717344,2.00563413,0.0057117,55.5047,157.0772,51.3167,309.2634,0,U,24876,999,18173,0.0,1.09e-06,0.0,gps-ops,2022-05-13 13:10:44.594200
1,GPS BIIR-4  (PRN 20),2000-025A,2022-05-12T15:12:03.738240,2.00575257,0.0048141,54.0311,80.3453,183.9925,25.505,0,U,26360,999,16125,0.0,-1e-07,0.0,gps-ops,2022-05-13 13:10:44.594200
2,GPS BIIR-6  (PRN 22),2000-071A,2022-05-12T21:39:41.646240,2.00561614,0.0135552,55.088,154.068,254.071,281.0011,0,U,26605,999,15750,0.0,1.11e-06,0.0,gps-ops,2022-05-13 13:10:44.594200
3,GPS BIIR-8  (PRN 16),2003-005A,2022-05-12T09:16:49.768896,2.00566657,0.0126062,55.5377,274.4923,40.9417,331.7176,0,U,27663,999,14129,0.0,-2.4e-07,0.0,gps-ops,2022-05-13 13:10:44.594200
4,GPS BIIR-9  (PRN 21),2003-010A,2022-05-12T13:17:21.651648,2.00554203,0.0245413,55.0112,24.7593,305.1176,46.3029,0,U,27704,999,14008,0.0,-7.9e-07,0.0,gps-ops,2022-05-13 13:10:44.594200
5,GPS BIIR-11 (PRN 19),2004-009A,2022-05-12T20:11:59.512128,2.00561066,0.0090166,56.025,335.4462,118.6687,19.03,0,U,28190,999,13293,0.0,-4.3e-07,0.0,gps-ops,2022-05-13 13:10:44.594200
6,GPS BIIR-13 (PRN 02),2004-045A,2022-05-12T11:22:24.826944,2.0056546,0.020698,55.3388,24.8871,278.6501,222.771,0,U,28474,999,12841,0.0,-7.9e-07,0.0,gps-ops,2022-05-13 13:10:44.594200
7,GPS BIIRM-1 (PRN 17),2005-038A,2022-05-12T16:07:32.162592,2.00578548,0.013723,56.0928,332.8859,274.4221,120.6003,0,U,28874,999,12182,0.0,-4.1e-07,0.0,gps-ops,2022-05-13 13:10:44.594200
8,GPS BIIRM-2 (PRN 31),2006-042A,2022-05-12T21:43:45.244128,2.00556223,0.0103313,54.7177,210.687,21.1344,101.6924,0,U,29486,999,11438,0.0,3.6e-07,0.0,gps-ops,2022-05-13 13:10:44.594200
9,GPS BIIRM-3 (PRN 12),2006-052A,2022-05-12T16:14:16.437696,2.00577825,0.0084436,55.5432,273.4172,73.0738,287.8252,0,U,29601,999,11339,0.0,-2.4e-07,0.0,gps-ops,2022-05-13 13:10:44.594200
10,GPS BIIRM-4 (PRN 15),2007-047A,2022-05-12T11:51:33.720192,2.00550273,0.013823,53.3044,142.0332,62.0424,299.3981,0,U,32260,999,10679,0.0,1.04e-06,0.0,gps-ops,2022-05-13 13:10:44.594200
11,GPS BIIRM-5 (PRN 29),2007-062A,2022-05-12T19:21:29.459808,2.00559963,0.0019663,56.2106,333.6369,133.7072,223.2309,0,U,32384,999,10549,0.0,-4.1e-07,0.0,gps-ops,2022-05-13 13:10:44.594200
12,GPS BIIRM-6 (PRN 07),2008-012A,2022-05-12T09:48:38.901312,2.00564213,0.0162238,54.4771,209.6506,230.4705,128.1451,0,U,32711,999,10373,0.0,3.2e-07,0.0,gps-ops,2022-05-13 13:10:44.594200
13,GPS BIIRM-8 (PRN 05),2009-043A,2022-05-12T21:49:18.721344,2.00558292,0.0057774,55.0458,86.958,57.2641,321.6453,0,U,35752,999,9335,0.0,6e-08,0.0,gps-ops,2022-05-13 13:10:44.594200
14,GPS BIIF-1  (PRN 25),2010-022A,2022-05-12T17:28:49.980864,2.00563411,0.0103379,54.8253,268.9593,56.7536,307.6287,0,U,36585,999,8758,0.0,-2.4e-07,0.0,gps-ops,2022-05-13 13:10:44.594200
15,GPS BIIF-2  (PRN 01),2011-036A,2022-05-12T20:25:10.033248,2.00565143,0.0116818,56.5903,30.0898,51.1537,126.7189,0,U,37753,999,7926,0.0,-7.6e-07,0.0,gps-ops,2022-05-13 13:10:44.594200
16,GPS BIIF-3  (PRN 24),2012-053A,2022-05-12T02:09:45.242208,2.00561351,0.0122843,53.5313,204.8397,45.9491,315.1218,0,U,38833,999,6941,0.0,3.6e-07,0.0,gps-ops,2022-05-13 13:10:44.594200
17,GPS BIIF-4  (PRN 27),2013-023A,2022-05-12T10:44:32.136288,2.00566114,0.0103925,55.7217,329.2812,37.8139,322.9428,0,U,39166,999,6586,0.0,-3.9e-07,0.0,gps-ops,2022-05-13 13:10:44.594200
18,GPS BIIF-5  (PRN 30),2014-008A,2022-05-12T10:40:25.294944,2.00551623,0.0058992,53.6263,210.3276,207.4355,152.311,0,U,39533,999,5966,0.0,3e-07,0.0,gps-ops,2022-05-13 13:10:44.594200
19,GPS BIIF-6  (PRN 06),2014-026A,2022-05-12T05:26:47.793984,2.00558577,0.0027687,56.5525,29.6398,307.4559,52.3248,0,U,39741,999,5851,0.0,-7.8e-07,0.0,gps-ops,2022-05-13 13:10:44.594200
20,GPS BIIF-7  (PRN 09),2014-045A,2022-05-12T07:31:29.775648,2.00575546,0.0018625,54.6836,148.2465,109.5922,250.6661,0,U,40105,999,5605,0.0,1.09e-06,0.0,gps-ops,2022-05-13 13:10:44.594200
21,GPS BIIF-8  (PRN 03),2014-068A,2022-05-12T04:34:41.805696,2.00568948,0.0039565,55.7897,89.3669,52.6055,307.7308,0,U,40294,999,5518,0.0,1.7e-07,0.0,gps-ops,2022-05-13 13:10:44.594200
22,GPS BIIF-9  (PRN 26),2015-013A,2022-05-12T07:48:59.018112,2.00554647,0.0068563,53.727,266.1914,20.6526,339.6003,0,U,40534,999,5180,0.0,-2.5e-07,0.0,gps-ops,2022-05-13 13:10:44.594200
23,GPS BIIF-10 (PRN 08),2015-033A,2022-05-12T11:45:34.244352,2.00553762,0.0074197,55.2212,328.1257,7.6529,352.4878,0,U,40730,999,4997,0.0,-3.9e-07,0.0,gps-ops,2022-05-13 13:10:44.594200
24,GPS BIIF-11 (PRN 10),2015-062A,2022-05-12T12:51:55.211616,2.00562781,0.0077406,55.7789,89.1953,218.5582,140.8647,0,U,41019,999,4781,0.0,1.5e-07,0.0,gps-ops,2022-05-13 13:10:44.594200
25,GPS BIIF-12 (PRN 32),2016-007A,2022-05-12T15:06:12.508416,2.00572305,0.0061316,54.9022,148.8972,230.2821,129.2333,0,U,41328,999,4582,0.0,1.1e-06,0.0,gps-ops,2022-05-13 13:10:44.594200
26,GPS BIII-1  (PRN 04),2018-109A,2022-05-12T19:35:08.494656,2.00569806,0.0018597,55.0819,151.3009,196.9529,193.5449,0,U,43873,999,2501,0.0,1.11e-06,0.0,gps-ops,2022-05-13 13:10:44.594200
27,GPS BIII-2  (PRN 18),2019-056A,2022-05-12T15:29:17.365632,2.00572024,0.0022822,55.6625,30.473,179.7581,350.9091,0,U,44506,999,2005,0.0,-7.8e-07,0.0,gps-ops,2022-05-13 13:10:44.594200
28,GPS BIII-3  (PRN 23),2020-041A,2022-05-12T15:33:18.565920,2.00559441,0.002104,55.4967,87.7422,178.4378,290.3743,0,U,45854,999,1402,0.0,1e-07,0.0,gps-ops,2022-05-13 13:10:44.594200
29,GPS BIII-4  (PRN 14),2020-078A,2022-05-12T18:30:41.580576,2.00565284,0.0018431,54.5921,271.5428,184.398,347.4861,0,U,46826,999,1149,0.0,-2.5e-07,0.0,gps-ops,2022-05-13 13:10:44.594200
30,GPS BIII-5  (PRN 11),2021-054A,2022-05-12T17:32:02.110272,2.00575512,0.0003568,55.1675,32.4874,200.941,123.9945,0,U,48859,999,673,0.0,-7.8e-07,0.0,gps-ops,2022-05-13 13:10:44.594200
